{"fetched_at":"2026-07-22T07:09:50.681Z","source":"https://celestrak.org/NORAD/elements/gp.php?NAME=JILIN&FORMAT=JSON","constellation":"jilin-1-gaofen","records":[{"OBJECT_NAME":"JILIN-1 GAOFEN 3A","OBJECT_ID":"2019-032C","EPOCH":"2026-07-21T14:55:13.196928","CLASSIFICATION_TYPE":"U","MEAN_MOTION":15.33286422,"ECCENTRICITY":0.00052354,"INCLINATION":44.9739,"RA_OF_ASC_NODE":167.3191,"ARG_OF_PERICENTER":151.8701,"MEAN_ANOMALY":208.2468,"EPHEMERIS_TYPE":0,"NORAD_CAT_ID":44312,"ELEMENT_SET_NO":999,"REV_AT_EPOCH":39312,"BSTAR":0.00033890799,"MEAN_MOTION_DOT":0.00010821,"MEAN_MOTION_DDOT":0},{"OBJECT_NAME":"JILIN-1 GAOFEN 2A","OBJECT_ID":"2019-075A","EPOCH":"2026-07-21T13:53:11.024448","CLASSIFICATION_TYPE":"U","MEAN_MOTION":15.4012466,"ECCENTRICITY":0.00046319,"INCLINATION":97.4952,"RA_OF_ASC_NODE":287.192,"ARG_OF_PERICENTER":328.1539,"MEAN_ANOMALY":31.9426,"EPHEMERIS_TYPE":0,"NORAD_CAT_ID":44777,"ELEMENT_SET_NO":999,"REV_AT_EPOCH":37017,"BSTAR":0.00035765337,"MEAN_MOTION_DOT":0.00014256,"MEAN_MOTION_DDOT":0},{"OBJECT_NAME":"JILIN-1 GAOFEN 2B","OBJECT_ID":"2019-086A","EPOCH":"2026-07-21T14:56:43.008864","CLASSIFICATION_TYPE":"U","MEAN_MOTION":15.2104595,"ECCENTRICITY":0.00138409,"INCLINATION":97.4864,"RA_OF_ASC_NODE":274.403,"ARG_OF_PERICENTER":192.4087,"MEAN_ANOMALY":167.681,"EPHEMERIS_TYPE":0,"NORAD_CAT_ID":44836,"ELEMENT_SET_NO":999,"REV_AT_EPOCH":36572,"BSTAR":0.00024588284,"MEAN_MOTION_DOT":0.00005403,"MEAN_MOTION_DDOT":0},{"OBJECT_NAME":"JILIN-1 GAOFEN 3E","OBJECT_ID":"2020-065D","EPOCH":"2026-07-21T14:29:21.722496","CLASSIFICATION_TYPE":"U","MEAN_MOTION":15.67895229,"ECCENTRICITY":0.0009068,"INCLINATION":97.2201,"RA_OF_ASC_NODE":256.1105,"ARG_OF_PERICENTER":50.3592,"MEAN_ANOMALY":309.8468,"EPHEMERIS_TYPE":0,"NORAD_CAT_ID":46457,"ELEMENT_SET_NO":999,"REV_AT_EPOCH":32514,"BSTAR":0.00069184014,"MEAN_MOTION_DOT":0.00076773,"MEAN_MOTION_DDOT":0},{"OBJECT_NAME":"JILIN-1 GAOFEN 3F","OBJECT_ID":"2020-065E","EPOCH":"2026-07-21T15:10:03.642240","CLASSIFICATION_TYPE":"U","MEAN_MOTION":15.6449695,"ECCENTRICITY":0.00103661,"INCLINATION":97.2163,"RA_OF_ASC_NODE":253.2938,"ARG_OF_PERICENTER":34.8737,"MEAN_ANOMALY":325.32,"EPHEMERIS_TYPE":0,"NORAD_CAT_ID":46458,"ELEMENT_SET_NO":999,"REV_AT_EPOCH":32508,"BSTAR":0.00066374599,"MEAN_MOTION_DOT":0.00064233,"MEAN_MOTION_DDOT":0},{"OBJECT_NAME":"JILIN-1 GAOFEN 3G","OBJECT_ID":"2020-065F","EPOCH":"2026-07-21T14:11:00.803328","CLASSIFICATION_TYPE":"U","MEAN_MOTION":15.78106177,"ECCENTRICITY":0.00064159,"INCLINATION":97.2216,"RA_OF_ASC_NODE":260.7093,"ARG_OF_PERICENTER":245.4893,"MEAN_ANOMALY":114.5705,"EPHEMERIS_TYPE":0,"NORAD_CAT_ID":46459,"ELEMENT_SET_NO":999,"REV_AT_EPOCH":32535,"BSTAR":0.00078444626,"MEAN_MOTION_DOT":0.00135087,"MEAN_MOTION_DDOT":0},{"OBJECT_NAME":"JILIN-1 GAOFEN 3H","OBJECT_ID":"2020-065G","EPOCH":"2026-07-21T14:10:02.642304","CLASSIFICATION_TYPE":"U","MEAN_MOTION":15.73165954,"ECCENTRICITY":0.0007144,"INCLINATION":97.2166,"RA_OF_ASC_NODE":256.7921,"ARG_OF_PERICENTER":183.3576,"MEAN_ANOMALY":176.7642,"EPHEMERIS_TYPE":0,"NORAD_CAT_ID":46460,"ELEMENT_SET_NO":999,"REV_AT_EPOCH":32528,"BSTAR":0.00073044708,"MEAN_MOTION_DOT":0.00101099,"MEAN_MOTION_DDOT":0},{"OBJECT_NAME":"JILIN-1 GAOFEN 2D","OBJECT_ID":"2021-086A","EPOCH":"2026-07-21T14:25:18.485760","CLASSIFICATION_TYPE":"U","MEAN_MOTION":15.10898423,"ECCENTRICITY":0.00335622,"INCLINATION":97.651,"RA_OF_ASC_NODE":325.3055,"ARG_OF_PERICENTER":29.3403,"MEAN_ANOMALY":330.9702,"EPHEMERIS_TYPE":0,"NORAD_CAT_ID":49256,"ELEMENT_SET_NO":999,"REV_AT_EPOCH":26591,"BSTAR":0.00019518934,"MEAN_MOTION_DOT":0.00003226,"MEAN_MOTION_DDOT":0},{"OBJECT_NAME":"JILIN-1 GAOFEN 2F","OBJECT_ID":"2021-097A","EPOCH":"2026-07-21T14:36:46.729152","CLASSIFICATION_TYPE":"U","MEAN_MOTION":15.07981212,"ECCENTRICITY":0.00201871,"INCLINATION":97.6738,"RA_OF_ASC_NODE":328.7351,"ARG_OF_PERICENTER":109.1757,"MEAN_ANOMALY":251.1658,"EPHEMERIS_TYPE":0,"NORAD_CAT_ID":49338,"ELEMENT_SET_NO":999,"REV_AT_EPOCH":26150,"BSTAR":0.00020390832,"MEAN_MOTION_DOT":0.00003085,"MEAN_MOTION_DDOT":0},{"OBJECT_NAME":"JILIN-1 GAOFEN 3D27","OBJECT_ID":"2022-048B","EPOCH":"2026-07-21T14:38:02.790528","CLASSIFICATION_TYPE":"U","MEAN_MOTION":15.84871925,"ECCENTRICITY":0.00056196,"INCLINATION":97.5719,"RA_OF_ASC_NODE":319.9232,"ARG_OF_PERICENTER":231.9813,"MEAN_ANOMALY":128.095,"EPHEMERIS_TYPE":0,"NORAD_CAT_ID":52444,"ELEMENT_SET_NO":999,"REV_AT_EPOCH":23491,"BSTAR":0.00087782349,"MEAN_MOTION_DOT":0.00208033,"MEAN_MOTION_DDOT":0},{"OBJECT_NAME":"JILIN-1 GAOFEN 3D28","OBJECT_ID":"2022-048C","EPOCH":"2026-07-21T13:57:44.398368","CLASSIFICATION_TYPE":"U","MEAN_MOTION":15.90608828,"ECCENTRICITY":0.00058098,"INCLINATION":97.5667,"RA_OF_ASC_NODE":320.2439,"ARG_OF_PERICENTER":237.135,"MEAN_ANOMALY":122.9364,"EPHEMERIS_TYPE":0,"NORAD_CAT_ID":52445,"ELEMENT_SET_NO":999,"REV_AT_EPOCH":23497,"BSTAR":0.00090164482,"MEAN_MOTION_DOT":0.00276147,"MEAN_MOTION_DDOT":0.000030249469},{"OBJECT_NAME":"JILIN-1 GAOFEN 3D29","OBJECT_ID":"2022-048D","EPOCH":"2026-07-21T14:15:04.679424","CLASSIFICATION_TYPE":"U","MEAN_MOTION":15.85096829,"ECCENTRICITY":0.00046739,"INCLINATION":97.572,"RA_OF_ASC_NODE":320.2739,"ARG_OF_PERICENTER":218.2598,"MEAN_ANOMALY":141.8341,"EPHEMERIS_TYPE":0,"NORAD_CAT_ID":52446,"ELEMENT_SET_NO":999,"REV_AT_EPOCH":23493,"BSTAR":0.00085390566,"MEAN_MOTION_DOT":0.00204392,"MEAN_MOTION_DDOT":0},{"OBJECT_NAME":"JILIN-1 GAOFEN 3D31","OBJECT_ID":"2022-048F","EPOCH":"2026-07-21T13:48:58.771008","CLASSIFICATION_TYPE":"U","MEAN_MOTION":15.97791783,"ECCENTRICITY":0.00069756,"INCLINATION":97.574,"RA_OF_ASC_NODE":321.7229,"ARG_OF_PERICENTER":244.033,"MEAN_ANOMALY":116.0228,"EPHEMERIS_TYPE":0,"NORAD_CAT_ID":52448,"ELEMENT_SET_NO":999,"REV_AT_EPOCH":23504,"BSTAR":0.00096286497,"MEAN_MOTION_DOT":0.00431471,"MEAN_MOTION_DDOT":0.000079492446},{"OBJECT_NAME":"JILIN-1 GAOFEN 03D09","OBJECT_ID":"2022-098B","EPOCH":"2026-07-21T14:11:40.690752","CLASSIFICATION_TYPE":"U","MEAN_MOTION":15.71005748,"ECCENTRICITY":0.00036922,"INCLINATION":97.563,"RA_OF_ASC_NODE":334.9693,"ARG_OF_PERICENTER":213.9519,"MEAN_ANOMALY":146.1507,"EPHEMERIS_TYPE":0,"NORAD_CAT_ID":53445,"ELEMENT_SET_NO":999,"REV_AT_EPOCH":22002,"BSTAR":0.00074577842,"MEAN_MOTION_DOT":0.00094085,"MEAN_MOTION_DDOT":0},{"OBJECT_NAME":"JILIN-1 GAOFEN 03D43","OBJECT_ID":"2022-098E","EPOCH":"2026-07-21T13:14:41.989632","CLASSIFICATION_TYPE":"U","MEAN_MOTION":15.74928277,"ECCENTRICITY":0.00059239,"INCLINATION":97.5614,"RA_OF_ASC_NODE":336.1234,"ARG_OF_PERICENTER":187.9307,"MEAN_ANOMALY":172.1865,"EPHEMERIS_TYPE":0,"NORAD_CAT_ID":53448,"ELEMENT_SET_NO":999,"REV_AT_EPOCH":22009,"BSTAR":0.00092069873,"MEAN_MOTION_DOT":0.00137996,"MEAN_MOTION_DDOT":0},{"OBJECT_NAME":"JILIN-1 GAOFEN 03D08","OBJECT_ID":"2022-155A","EPOCH":"2026-07-21T15:52:26.382144","CLASSIFICATION_TYPE":"U","MEAN_MOTION":15.68145828,"ECCENTRICITY":0.00045421,"INCLINATION":97.6245,"RA_OF_ASC_NODE":350.9252,"ARG_OF_PERICENTER":207.0606,"MEAN_ANOMALY":153.0419,"EPHEMERIS_TYPE":0,"NORAD_CAT_ID":54251,"ELEMENT_SET_NO":999,"REV_AT_EPOCH":20521,"BSTAR":0.00053781861,"MEAN_MOTION_DOT":0.00060047,"MEAN_MOTION_DDOT":0}]}
