JILIN-1 GAOFEN 3A       
1 44312U 19032C   26202.62168052  .00010821  00000+0  33891-3 0  9999
2 44312  44.9739 167.3191 0005235 151.8701 208.2468 15.33286422393122
JILIN-1 GAOFEN 2A       
1 44777U 19075A   26202.57859982  .00014256  00000+0  35765-3 0  9992
2 44777  97.4952 287.1920 0004631 328.1539  31.9426 15.40124660370173
JILIN-1 GAOFEN 2B       
1 44836U 19086A   26202.62272001  .00005403  00000+0  24588-3 0  9992
2 44836  97.4864 274.4030 0013840 192.4087 167.6810 15.21045950365726
JILIN-1 GAOFEN 3E       
1 46457U 20065D   26202.60372364  .00076773  00000+0  69184-3 0  9992
2 46457  97.2201 256.1105 0009068  50.3592 309.8468 15.67895229325143
JILIN-1 GAOFEN 3F       
1 46458U 20065E   26202.63198660  .00064233  00000+0  66375-3 0  9998
2 46458  97.2163 253.2938 0010366  34.8737 325.3200 15.64496950325089
JILIN-1 GAOFEN 3G       
1 46459U 20065F   26202.59098152  .00135087  00000+0  78445-3 0  9996
2 46459  97.2216 260.7093 0006415 245.4893 114.5705 15.78106177325359
JILIN-1 GAOFEN 3H       
1 46460U 20065G   26202.59030836  .00101099  00000+0  73045-3 0  9990
2 46460  97.2166 256.7921 0007144 183.3576 176.7642 15.73165954325283
JILIN-1 GAOFEN 2D       
1 49256U 21086A   26202.60090840  .00003226  00000+0  19519-3 0  9992
2 49256  97.6510 325.3055 0033562  29.3403 330.9702 15.10898423265917
JILIN-1 GAOFEN 2F       
1 49338U 21097A   26202.60887418  .00003085  00000+0  20391-3 0  9993
2 49338  97.6738 328.7351 0020187 109.1757 251.1658 15.07981212261504
JILIN-1 GAOFEN 3D27     
1 52444U 22048B   26202.60975452  .00208033  00000+0  87782-3 0  9995
2 52444  97.5719 319.9232 0005619 231.9813 128.0950 15.84871925234910
JILIN-1 GAOFEN 3D28     
1 52445U 22048C   26202.58176387  .00276147  30249-4  90164-3 0  9995
2 52445  97.5667 320.2439 0005809 237.1350 122.9364 15.90608828234977
JILIN-1 GAOFEN 3D29     
1 52446U 22048D   26202.59380416  .00204392  00000+0  85391-3 0  9993
2 52446  97.5720 320.2739 0004673 218.2598 141.8341 15.85096829234930
JILIN-1 GAOFEN 3D31     
1 52448U 22048F   26202.57568022  .00431471  79492-4  96286-3 0  9995
2 52448  97.5740 321.7229 0006975 244.0330 116.0228 15.97791783235047
JILIN-1 GAOFEN 03D09    
1 53445U 22098B   26202.59144318  .00094085  00000+0  74578-3 0  9998
2 53445  97.5630 334.9693 0003692 213.9519 146.1507 15.71005748220028
JILIN-1 GAOFEN 03D43    
1 53448U 22098E   26202.55187488  .00137996  00000+0  92070-3 0  9998
2 53448  97.5614 336.1234 0005923 187.9307 172.1865 15.74928277220099
JILIN-1 GAOFEN 03D08    
1 54251U 22155A   26202.66141646  .00060047  00000+0  53782-3 0  9992
2 54251  97.6245 350.9252 0004542 207.0606 153.0419 15.68145828205215
